STARLINK-5671
1 55339U 23013J   26090.83335647 -.00007004  00000+0 -39868-3 0  9999
2 55339  43.0007 179.0103 0001208 286.3839  23.2904 15.11077878  5811
STARLINK-5641
1 55359U 23013AE  26090.83335647  .00010549  00000+0  63174-3 0  9994
2 55359  43.0004 178.5093 0001648 291.0816 227.4630 15.11060739  5775
STARLINK-5664
1 55360U 23013AF  26090.83335647  .00047925  00000+0  28138-2 0  9994
2 55360  43.0009 192.0730 0001446 261.4938  10.2201 15.11003857  5818
STARLINK-5627
1 55364U 23013AK  26090.83335647  .00006398  00000+0  38837-3 0  9995
2 55364  43.0004 178.4644 0001380 264.1531 273.2542 15.11074362  5778
STARLINK-5639
1 55365U 23013AL  26090.83335647  .00021340  00000+0  12624-2 0  9995
2 55365  43.0005 192.2761 0001519 276.1080 274.1346 15.11071106  5764
STARLINK-5644
1 55369U 23013AQ  26090.83335647  .00029400  00000+0  17351-2 0  9996
2 55369  43.0011 192.2267 0001899 277.1497 293.8825 15.11016466  5768
STARLINK-5027
1 55370U 23013AR  26090.59323445 -.00000177  00000+0  25962-5 0  9995
2 55370  43.0033 193.5128 0001415 275.7000  84.3684 15.11069282174860
STARLINK-5590
1 55371U 23013AS  26090.32689695 -.00043773  00000+0 -25565-2 0  9995
2 55371  43.0005 194.9485 0001415 257.7670 102.3017 15.11308621175746
STARLINK-5568
1 55372U 23013AT  26090.83335647  .00022111  00000+0  13076-2 0  9992
2 55372  43.0004 192.2489 0001485 279.5695 282.0960 15.11067690  5717
STARLINK-5578
1 55374U 23013AV  26090.60042592 -.00041172  00000+0 -24041-2 0  9997
2 55374  43.0016 193.5617 0000459 208.3421 151.7399 15.11293056174864
STARLINK-5567
1 55377U 23013AY  26090.83335647  .00024571  00000+0  14514-2 0  9997
2 55377  43.0006 192.0794 0001485 264.6393   6.0100 15.11061783  5718
STARLINK-5569
1 55379U 23013BA  26090.83335647  .00024027  00000+0  14196-2 0  9991
2 55379  43.0005 192.1454 0001626 286.4608 317.0130 15.11062588  5656
STARLINK-5575
1 55381U 23013BC  26090.83335647  .00014808  00000+0  88067-3 0  9999
2 55381  43.0005 192.1788 0001780 274.0334 314.6225 15.11076439  5714
STARLINK-5576
1 55382U 23013BD  26090.31609592  .00011968  00000+0  71590-3 0  9993
2 55382  43.0021 194.8706 0001483 281.1380  78.9299 15.11008085174824
STARLINK-5556
1 55385U 23013BG  26090.83335647  .00024301  00000+0  14357-2 0  9992
2 55385  43.0007 192.0731 0001731 282.7776 350.3897 15.11060453  5765
STARLINK-5555
1 55386U 23013BH  26090.83335647  .00025537  00000+0  15073-2 0  9991
2 55386  43.0006 192.1319 0001623 277.0205 331.2680 15.11072391  5719
STARLINK-5364
1 55491U 23015AU  26090.83335647  .00056409  00000+0  33363-2 0  9994
2 55491  43.0006 192.0688 0001830 258.1933  35.7202 15.10671502  5817
STARLINK-5100
1 55495U 23015AY  26090.83335647  .00029533  00000+0  17410-2 0  9991
2 55495  43.0006 192.3030 0001410 279.1767 283.6350 15.11053575  5719
STARLINK-5753
1 55581U 23020N   26090.81294294  .00010359  00000+0  62013-3 0  9999
2 55581  43.0000 243.8844 0001868 270.4702  89.5930 15.11090898172254
STARLINK-5916
1 55988U 23042C   26090.29409928  .00002238  00000+0  14437-3 0  9992
2 55988  43.0008 297.5925 0000823 277.1075  82.9677 15.11074947166172
STARLINK-5944
1 56001U 23042R   26090.83335647 -.00000305  00000+0 -49253-5 0  9996
2 56001  42.9996 294.6932 0001360 274.8109 108.3539 15.11064147  5812
STARLINK-5787
1 56004U 23042U   26090.30008762  .00001707  00000+0  11320-3 0  9993
2 56004  43.0015 297.6218 0001626 255.9335 104.1330 15.11076266166170
STARLINK-5801
1 56005U 23042V   26090.56145736  .00001234  00000+0  85448-4 0  9993
2 56005  43.0031 296.1440 0002261 251.3980 108.6620 15.11073776166211
STARLINK-5794
1 56006U 23042W   26090.83335647 -.00004288  00000+0 -23894-3 0  9996
2 56006  42.9995 294.7494 0001682 275.4680  81.2662 15.11073040  5771
STARLINK-5964
1 56009U 23042Z   26089.96730715 -.00000509  00000+0 -16919-4 0  9999
2 56009  43.0015 299.4226 0001304 277.9206  82.1491 15.11072453166120
STARLINK-6077
1 56097U 23046E   26090.83335647 -.00012003  00000+0 -69315-3 0  9992
2 56097  43.0004 345.5942 0001336 258.6254 135.0072 15.11068945  5538
STARLINK-6180
1 56887U 23083M   26090.83335647 -.00014355  00000+0 -83161-3 0  9997
2 56887  42.9996 320.2775 0001299 267.6635 153.1723 15.11075985  5613
STARLINK-6181
1 56888U 23083N   26090.83335647 -.00018366  00000+0 -10681-2 0  9990
2 56888  42.9994 320.1542 0001047 260.6917 210.2876 15.11080669  5811
STARLINK-5528
1 56890U 23083Q   26090.83335647 -.00011269  00000+0 -64987-3 0  9997
2 56890  42.9995 320.1612 0001363 272.3421 196.2651 15.11068977  5816
STARLINK-6219
1 56892U 23083S   26090.02806555 -.00000679  00000+0 -26894-4 0  9990
2 56892  42.9998 324.6905 0001236 266.0893  93.9811 15.11078915154894
STARLINK-6144
1 56894U 23083U   26090.83335647 -.00019354  00000+0 -11267-2 0  9996
2 56894  42.9996 320.1455 0001177 263.8720 210.0594 15.11070978  5822
STARLINK-6208
1 56895U 23083V   26090.83335647 -.00020371  00000+0 -11868-2 0  9995
2 56895  42.9998 320.3383 0001287 267.4495 124.7900 15.11070888  5820
STARLINK-6202
1 56896U 23083W   26090.83335647 -.00017444  00000+0 -10138-2 0  9992
2 56896  42.9994 320.2472 0000986 272.9205 157.1340 15.11076928  5829
STARLINK-6200
1 56897U 23083X   26090.61364078  .00070713  00000+0  41605-2 0  9998
2 56897  42.9998 321.3458 0002167 237.0541 123.0096 15.10758269155109
STARLINK-5844
1 57068U 23088W   26090.83335647 -.00010941  00000+0 -63035-3 0  9999
2 57068  43.0005 345.7574 0001365 251.6752 232.3445 15.11081439  5829
STARLINK-5773
1 57074U 23088AC  26090.83335647 -.00017381  00000+0 -10099-2 0  9992
2 57074  43.0003 345.7634 0001288 258.4985 222.2967 15.11082814  5823
STARLINK-5780
1 57150U 23090BB  26090.51211484 -.00000393  00000+0 -10104-4 0  9991
2 57150  43.0010 141.5563 0001063 274.6288  85.4436 15.11077596153865
STARLINK-6377
1 57341U 23099P   26090.51894062 -.00097166  00000+0 -56865-2 0  9997
2 57341  43.0011 129.2234 0000820 273.8785  86.1967 15.11603765149415
STARLINK-6373
1 57345U 23099T   26090.83335647 -.00022467  00000+0 -13100-2 0  9992
2 57345  43.0004 127.5759 0001682 276.3361 319.9912 15.11085437  5811
STARLINK-6378
1 57347U 23099V   26090.83335647 -.00026913  00000+0 -15726-2 0  9990
2 57347  43.0003 127.3525 0001187 267.6542  63.2850 15.11090759  5818
STARLINK-6362
1 57350U 23099Y   26090.41312117  .00002009  00000+0  13095-3 0  9991
2 57350  43.0020 117.9719 0001770 268.9997  91.0645 15.11067439149524
STARLINK-6297
1 57352U 23099AA  26090.83335647 -.00010407  00000+0 -59875-3 0  9991
2 57352  43.0008 115.6856 0001810 276.8698 199.9383 15.11088121  5811
STARLINK-6276
1 57355U 23099AD  26090.83335647 -.00014862  00000+0 -86138-3 0  9995
2 57355  43.0006 115.6091 0001659 255.5164 254.0345 15.11081889  5710
STARLINK-6347
1 57359U 23099AH  26090.14518045 -.00059475  00000+0 -35564-2 0  9993
2 57359  42.9991 119.3968 0004121 105.0807 255.0495 15.10578697149497
STARLINK-6343
1 57362U 23099AL  26090.83335647  .00049852  00000+0  28371-2 0  9992
2 57362  42.9994 115.4165 0000923 264.9906 322.0162 15.12112240  5814
STARLINK-6174
1 57366U 23099AQ  26090.83335647  .00046582  00000+0  27483-2 0  9996
2 57366  42.9999 115.3649 0001255 256.5332 351.8198 15.10840348  5711
STARLINK-6218
1 57368U 23099AS  26090.83335647  .00049959  00000+0  29702-2 0  9995
2 57368  43.0000 115.3203 0001696 243.2224  22.7814 15.10533851  5814
STARLINK-6168
1 57369U 23099AT  26090.83335647  .00019921  00000+0  11610-2 0  9991
2 57369  42.9995 115.3214 0001380 262.5450   2.7892 15.11647205  5716
STARLINK-6032
1 57371U 23099AV  26090.83335647  .00054119  00000+0  30726-2 0  9991
2 57371  43.0000 115.3104 0001725 248.2114  23.0172 15.12163124  5819
STARLINK-6370
1 57373U 23099AX  26090.83335647 -.00015164  00000+0 -87912-3 0  9992
2 57373  43.0005 115.5295 0001661 267.0143 268.2015 15.11083454  5814
STARLINK-30195
1 57406U 23102C   26090.83335647 -.00046465  00000+0 -27224-2 0  9991
2 57406  43.0000 126.5057 0001317 306.8042 337.6900 15.11218133  5821
STARLINK-30221
1 57418U 23102Q   26090.83335647 -.00023755  00000+0 -13863-2 0  9995
2 57418  43.0004 126.5046 0001244 286.3154 355.4290 15.11080975  5811
STARLINK-30186
1 57470U 23107P   26090.65704159 -.00008111  00000+0 -45285-3 0  9999
2 57470  42.9989 216.5681 0003292 253.1507 106.8978 15.11923110148459
STARLINK-30332
1 57700U 23129C   26090.83335647  .00000290  00000+0  29998-4 0  9993
2 57700  43.0006 359.3195 0001492 263.1950  75.6502 15.11074437  5767
STARLINK-30464
1 57908U 23146T   26090.60212139 -.00000632  00000+0 -24139-4 0  9991
2 57908  43.0036 193.3238 0000922 288.8319  71.2426 15.11074620139314
